{
  "type": "FeatureCollection",
  "generator": "overpass-ide",
  "copyright": "The data included in this document is from www.openstreetmap.org. The data is made available under ODbL.",
  "timestamp": "2019-12-21T14:54:02Z",
  "features": [
    {
      "type": "Feature",
      "properties": {
        "@id": "node/296620805",
        "addr:conscriptionnumber": "1013",
        "addr:housenumber": "1013/26",
        "addr:postcode": "14100",
        "addr:street": "Vestavěná",
        "addr:streetnumber": "26",
        "source:addr": "uir_adr",
        "uir_adr:ADRESA_KOD": "21989061"
      },
      "geometry": {
        "type": "Point",
        "coordinates": [
          14.4801191,
          50.0418599
        ]
      },
      "id": "node/296620805"
    },
    {
      "type": "Feature",
      "properties": {
        "@id": "node/296625598",
        "addr:conscriptionnumber": "968",
        "addr:housenumber": "968/1",
        "addr:postcode": "14100",
        "addr:street": "Jižní VI",
        "addr:streetnumber": "1",
        "source:addr": "uir_adr",
        "uir_adr:ADRESA_KOD": "21988609"
      },
      "geometry": {
        "type": "Point",
        "coordinates": [
          14.4823246,
          50.0422902
        ]
      },
      "id": "node/296625598"
    },
    {
      "type": "Feature",
      "properties": {
        "@id": "node/296627452",
        "addr:conscriptionnumber": "913",
        "addr:housenumber": "913/7",
        "addr:place": "Záběhlice",
        "addr:postcode": "14100",
        "addr:street": "Jihovýchodní V",
        "addr:streetnumber": "7",
        "ref:ruian:addr": "21988048"
      },
      "geometry": {
        "type": "Point",
        "coordinates": [
          14.4831374,
          50.042526
        ]
      },
      "id": "node/296627452"
    },
    {
      "type": "Feature",
      "properties": {
        "@id": "node/296628619",
        "addr:conscriptionnumber": "916",
        "addr:housenumber": "916/1",
        "addr:place": "Záběhlice",
        "addr:postcode": "14100",
        "addr:street": "Jihovýchodní V",
        "addr:streetnumber": "1",
        "ref:ruian:addr": "21988072"
      },
      "geometry": {
        "type": "Point",
        "coordinates": [
          14.4826273,
          50.0424389
        ]
      },
      "id": "node/296628619"
    },
    {
      "type": "Feature",
      "properties": {
        "@id": "node/296636782",
        "addr:conscriptionnumber": "951",
        "addr:housenumber": "951/16",
        "addr:place": "Záběhlice",
        "addr:postcode": "14100",
        "addr:street": "Jižní náměstí",
        "addr:streetnumber": "16",
        "ref:ruian:addr": "21988439"
      },
      "geometry": {
        "type": "Point",
        "coordinates": [
          14.4828514,
          50.0416015
        ]
      },
      "id": "node/296636782"
    },
    {
      "type": "Feature",
      "properties": {
        "@id": "node/296637564",
        "addr:conscriptionnumber": "938",
        "addr:housenumber": "938/6",
        "addr:postcode": "14100",
        "addr:street": "Jihovýchodní VII",
        "addr:streetnumber": "6",
        "source:addr": "uir_adr",
        "uir_adr:ADRESA_KOD": "21988307"
      },
      "geometry": {
        "type": "Point",
        "coordinates": [
          14.4832666,
          50.0412388
        ]
      },
      "id": "node/296637564"
    },
    {
      "type": "Feature",
      "properties": {
        "@id": "node/296645506",
        "addr:conscriptionnumber": "1018",
        "addr:housenumber": "1018/25",
        "addr:postcode": "14100",
        "addr:street": "Jihozápadní V",
        "addr:streetnumber": "25",
        "source:addr": "uir_adr",
        "uir_adr:ADRESA_KOD": "21989117"
      },
      "geometry": {
        "type": "Point",
        "coordinates": [
          14.4802998,
          50.0415401
        ]
      },
      "id": "node/296645506"
    },
    {
      "type": "Feature",
      "properties": {
        "@id": "node/296651817",
        "addr:conscriptionnumber": "960",
        "addr:housenumber": "960/5",
        "addr:postcode": "14100",
        "addr:street": "Jižní VII",
        "addr:streetnumber": "5",
        "source:addr": "uir_adr",
        "uir_adr:ADRESA_KOD": "21988528"
      },
      "geometry": {
        "type": "Point",
        "coordinates": [
          14.4819161,
          50.0410291
        ]
      },
      "id": "node/296651817"
    },
    {
      "type": "Feature",
      "properties": {
        "@id": "node/296652743",
        "addr:conscriptionnumber": "973",
        "addr:housenumber": "973/6",
        "addr:place": "Záběhlice",
        "addr:postcode": "14100",
        "addr:street": "Jižní náměstí",
        "addr:streetnumber": "6",
        "ref:ruian:addr": "21988650"
      },
      "geometry": {
        "type": "Point",
        "coordinates": [
          14.4820231,
          50.0419188
        ]
      },
      "id": "node/296652743"
    },
    {
      "type": "Feature",
      "properties": {
        "@id": "node/296657153",
        "addr:conscriptionnumber": "3310",
        "addr:housenumber": "3310/16",
        "addr:place": "Záběhlice",
        "addr:postcode": "14100",
        "addr:street": "Jižní VII",
        "addr:streetnumber": "16",
        "ref:ruian:addr": "40537790"
      },
      "geometry": {
        "type": "Point",
        "coordinates": [
          14.4810562,
          50.0426231
        ]
      },
      "id": "node/296657153"
    },
    {
      "type": "Feature",
      "properties": {
        "@id": "node/296663846",
        "addr:conscriptionnumber": "943",
        "addr:housenumber": "943/13",
        "addr:postcode": "14100",
        "addr:street": "Jihovýchodní VIII",
        "addr:streetnumber": "13",
        "source:addr": "uir_adr",
        "uir_adr:ADRESA_KOD": "21988358"
      },
      "geometry": {
        "type": "Point",
        "coordinates": [
          14.4833378,
          50.0410363
        ]
      },
      "id": "node/296663846"
    },
    {
      "type": "Feature",
      "properties": {
        "@id": "node/296673242",
        "addr:conscriptionnumber": "952",
        "addr:housenumber": "952/9",
        "addr:place": "Záběhlice",
        "addr:postcode": "14100",
        "addr:street": "Jihovýchodní VII",
        "addr:streetnumber": "9",
        "ref:ruian:addr": "21988447"
      },
      "geometry": {
        "type": "Point",
        "coordinates": [
          14.4832173,
          50.0413535
        ]
      },
      "id": "node/296673242"
    },
    {
      "type": "Feature",
      "properties": {
        "@id": "node/296673923",
        "addr:conscriptionnumber": "935",
        "addr:housenumber": "935/19",
        "addr:postcode": "14100",
        "addr:street": "Jihovýchodní VIII",
        "addr:streetnumber": "19",
        "source:addr": "uir_adr",
        "uir_adr:ADRESA_KOD": "21988277"
      },
      "geometry": {
        "type": "Point",
        "coordinates": [
          14.4841148,
          50.0411592
        ]
      },
      "id": "node/296673923"
    },
    {
      "type": "Feature",
      "properties": {
        "@id": "node/296674198",
        "addr:conscriptionnumber": "1012",
        "addr:housenumber": "1012/24",
        "addr:postcode": "14100",
        "addr:street": "Vestavěná",
        "addr:streetnumber": "24",
        "source:addr": "uir_adr",
        "uir_adr:ADRESA_KOD": "21989052"
      },
      "geometry": {
        "type": "Point",
        "coordinates": [
          14.4798343,
          50.0418076
        ]
      },
      "id": "node/296674198"
    },
    {
      "type": "Feature",
      "properties": {
        "@id": "node/296674497",
        "addr:conscriptionnumber": "1043",
        "addr:housenumber": "1043/24",
        "addr:postcode": "14100",
        "addr:street": "Jihozápadní II",
        "addr:streetnumber": "24",
        "source:addr": "uir_adr",
        "uir_adr:ADRESA_KOD": "21989362"
      },
      "geometry": {
        "type": "Point",
        "coordinates": [
          14.4796628,
          50.0424822
        ]
      },
      "id": "node/296674497"
    },
    {
      "type": "Feature",
      "properties": {
        "@id": "node/296693801",
        "addr:conscriptionnumber": "944",
        "addr:housenumber": "944/11",
        "addr:postcode": "14100",
        "addr:street": "Jihovýchodní VIII",
        "addr:streetnumber": "11",
        "source:addr": "uir_adr",
        "uir_adr:ADRESA_KOD": "21988366"
      },
      "geometry": {
        "type": "Point",
        "coordinates": [
          14.4832013,
          50.0410152
        ]
      },
      "id": "node/296693801"
    },
    {
      "type": "Feature",
      "properties": {
        "@id": "node/296696208",
        "addr:conscriptionnumber": "921",
        "addr:housenumber": "921/2",
        "addr:postcode": "14100",
        "addr:street": "Jižní V",
        "addr:streetnumber": "2",
        "source:addr": "uir_adr",
        "uir_adr:ADRESA_KOD": "21988129"
      },
      "geometry": {
        "type": "Point",
        "coordinates": [
          14.4835067,
          50.0424306
        ]
      },
      "id": "node/296696208"
    },
    {
      "type": "Feature",
      "properties": {
        "@id": "node/296698421",
        "addr:conscriptionnumber": "1936",
        "addr:housenumber": "1936/4",
        "addr:place": "Záběhlice",
        "addr:postcode": "14100",
        "addr:street": "Jihovýchodní IV",
        "addr:streetnumber": "4",
        "ref:ruian:addr": "21993874"
      },
      "geometry": {
        "type": "Point",
        "coordinates": [
          14.4815048,
          50.0424644
        ]
      },
      "id": "node/296698421"
    },
    {
      "type": "Feature",
      "properties": {
        "@id": "node/296698606",
        "addr:conscriptionnumber": "957",
        "addr:housenumber": "957/2",
        "addr:place": "Záběhlice",
        "addr:postcode": "14100",
        "addr:street": "Jižní VII",
        "addr:streetnumber": "2",
        "ref:ruian:addr": "21988498"
      },
      "geometry": {
        "type": "Point",
        "coordinates": [
          14.482262,
          50.0409109
        ]
      },
      "id": "node/296698606"
    },
    {
      "type": "Feature",
      "properties": {
        "@id": "node/296699562",
        "addr:conscriptionnumber": "974",
        "addr:housenumber": "974/5",
        "addr:place": "Záběhlice",
        "addr:postcode": "14100",
        "addr:street": "Jižní náměstí",
        "addr:streetnumber": "5",
        "ref:ruian:addr": "21988668"
      },
      "geometry": {
        "type": "Point",
        "coordinates": [
          14.4819142,
          50.0419001
        ]
      },
      "id": "node/296699562"
    },
    {
      "type": "Feature",
      "properties": {
        "@id": "node/296700042",
        "addr:conscriptionnumber": "1021",
        "addr:housenumber": "1021/19",
        "addr:postcode": "14100",
        "addr:street": "Jihozápadní V",
        "addr:streetnumber": "19",
        "source:addr": "uir_adr",
        "uir_adr:ADRESA_KOD": "21989141"
      },
      "geometry": {
        "type": "Point",
        "coordinates": [
          14.4797579,
          50.0414379
        ]
      },
      "id": "node/296700042"
    },
    {
      "type": "Feature",
      "properties": {
        "@id": "node/296703295",
        "addr:conscriptionnumber": "930",
        "addr:housenumber": "930/5",
        "addr:postcode": "14100",
        "addr:street": "Boční I",
        "addr:streetnumber": "5",
        "source:addr": "uir_adr",
        "uir_adr:ADRESA_KOD": "21988226"
      },
      "geometry": {
        "type": "Point",
        "coordinates": [
          14.4840648,
          50.0417265
        ]
      },
      "id": "node/296703295"
    },
    {
      "type": "Feature",
      "properties": {
        "@id": "node/296707915",
        "addr:conscriptionnumber": "949",
        "addr:housenumber": "949/18",
        "addr:place": "Záběhlice",
        "addr:postcode": "14100",
        "addr:street": "Jižní náměstí",
        "addr:streetnumber": "18",
        "ref:ruian:addr": "21988412"
      },
      "geometry": {
        "type": "Point",
        "coordinates": [
          14.4824836,
          50.0415419
        ]
      },
      "id": "node/296707915"
    },
    {
      "type": "Feature",
      "properties": {
        "@id": "node/296708562",
        "addr:conscriptionnumber": "1046",
        "addr:housenumber": "1046/9",
        "addr:place": "Záběhlice",
        "addr:postcode": "14100",
        "addr:street": "Jižní IX",
        "addr:streetnumber": "9",
        "ref:ruian:addr": "21989397"
      },
      "geometry": {
        "type": "Point",
        "coordinates": [
          14.4803667,
          50.042327
        ]
      },
      "id": "node/296708562"
    },
    {
      "type": "Feature",
      "properties": {
        "@id": "node/296708697",
        "addr:conscriptionnumber": "979",
        "addr:housenumber": "979/4",
        "addr:place": "Záběhlice",
        "addr:postcode": "14100",
        "addr:street": "Jižní náměstí",
        "addr:streetnumber": "4",
        "ref:ruian:addr": "21988714"
      },
      "geometry": {
        "type": "Point",
        "coordinates": [
          14.4816393,
          50.0418405
        ]
      },
      "id": "node/296708697"
    },
    {
      "type": "Feature",
      "properties": {
        "@id": "node/296715063",
        "addr:conscriptionnumber": "922",
        "addr:housenumber": "922/17",
        "addr:postcode": "14100",
        "addr:street": "Boční I",
        "addr:streetnumber": "17",
        "source:addr": "uir_adr",
        "uir_adr:ADRESA_KOD": "21988137"
      },
      "geometry": {
        "type": "Point",
        "coordinates": [
          14.4837362,
          50.042478
        ]
      },
      "id": "node/296715063"
    },
    {
      "type": "Feature",
      "properties": {
        "@id": "node/296716841",
        "addr:conscriptionnumber": "1015",
        "addr:housenumber": "1015/30",
        "addr:postcode": "14100",
        "addr:street": "Vestavěná",
        "addr:streetnumber": "30",
        "source:addr": "uir_adr",
        "uir_adr:ADRESA_KOD": "21989087"
      },
      "geometry": {
        "type": "Point",
        "coordinates": [
          14.4803524,
          50.0418896
        ]
      },
      "id": "node/296716841"
    },
    {
      "type": "Feature",
      "properties": {
        "@id": "node/296718966",
        "addr:conscriptionnumber": "999",
        "addr:housenumber": "999/8",
        "addr:postcode": "14100",
        "addr:street": "Jihozápadní IV",
        "addr:streetnumber": "8",
        "source:addr": "uir_adr",
        "uir_adr:ADRESA_KOD": "21988919"
      },
      "geometry": {
        "type": "Point",
        "coordinates": [
          14.4804139,
          50.0421309
        ]
      },
      "id": "node/296718966"
    },
    {
      "type": "Feature",
      "properties": {
        "@id": "node/296719647",
        "addr:conscriptionnumber": "941",
        "addr:housenumber": "941/17",
        "addr:postcode": "14100",
        "addr:street": "Jihovýchodní VIII",
        "addr:streetnumber": "17",
        "source:addr": "uir_adr",
        "uir_adr:ADRESA_KOD": "21988331"
      },
      "geometry": {
        "type": "Point",
        "coordinates": [
          14.4837313,
          50.0411073
        ]
      },
      "id": "node/296719647"
    },
    {
      "type": "Feature",
      "properties": {
        "@id": "node/296720449",
        "addr:conscriptionnumber": "958",
        "addr:housenumber": "958/1",
        "addr:postcode": "14100",
        "addr:street": "Jižní VII",
        "addr:streetnumber": "1",
        "source:addr": "uir_adr",
        "uir_adr:ADRESA_KOD": "21988501"
      },
      "geometry": {
        "type": "Point",
        "coordinates": [
          14.4821099,
          50.0408465
        ]
      },
      "id": "node/296720449"
    },
    {
      "type": "Feature",
      "properties": {
        "@id": "node/296720512",
        "addr:conscriptionnumber": "971",
        "addr:housenumber": "971/8",
        "addr:place": "Záběhlice",
        "addr:postcode": "14100",
        "addr:street": "Jižní náměstí",
        "addr:streetnumber": "8",
        "ref:ruian:addr": "21988633"
      },
      "geometry": {
        "type": "Point",
        "coordinates": [
          14.4824185,
          50.0419808
        ]
      },
      "id": "node/296720512"
    },
    {
      "type": "Feature",
      "properties": {
        "@id": "node/296723960",
        "addr:conscriptionnumber": "905",
        "addr:housenumber": "905/7",
        "addr:postcode": "14100",
        "addr:street": "Jihovýchodní IV",
        "addr:streetnumber": "7",
        "source:addr": "uir_adr",
        "uir_adr:ADRESA_KOD": "21987963"
      },
      "geometry": {
        "type": "Point",
        "coordinates": [
          14.4815661,
          50.0426771
        ]
      },
      "id": "node/296723960"
    },
    {
      "type": "Feature",
      "properties": {
        "@id": "node/296723999",
        "addr:conscriptionnumber": "1020",
        "addr:housenumber": "1020/21",
        "addr:postcode": "14100",
        "addr:street": "Jihozápadní V",
        "addr:streetnumber": "21",
        "source:addr": "uir_adr",
        "uir_adr:ADRESA_KOD": "21989133"
      },
      "geometry": {
        "type": "Point",
        "coordinates": [
          14.4798528,
          50.0414553
        ]
      },
      "id": "node/296723999"
    },
    {
      "type": "Feature",
      "properties": {
        "@id": "node/296726661",
        "addr:conscriptionnumber": "928",
        "addr:housenumber": "928/11",
        "addr:postcode": "14100",
        "addr:street": "Jihovýchodní VII",
        "addr:streetnumber": "11",
        "source:addr": "uir_adr",
        "uir_adr:ADRESA_KOD": "21988196"
      },
      "geometry": {
        "type": "Point",
        "coordinates": [
          14.4834815,
          50.0414211
        ]
      },
      "id": "node/296726661"
    },
    {
      "type": "Feature",
      "properties": {
        "@id": "node/296728610",
        "addr:conscriptionnumber": "914",
        "addr:housenumber": "914/5",
        "addr:place": "Záběhlice",
        "addr:postcode": "14100",
        "addr:street": "Jihovýchodní V",
        "addr:streetnumber": "5",
        "ref:ruian:addr": "21988056"
      },
      "geometry": {
        "type": "Point",
        "coordinates": [
          14.4830266,
          50.0425053
        ]
      },
      "id": "node/296728610"
    },
    {
      "type": "Feature",
      "properties": {
        "@id": "node/296734033",
        "addr:conscriptionnumber": "963",
        "addr:housenumber": "963/12",
        "addr:place": "Záběhlice",
        "addr:postcode": "14100",
        "addr:street": "Jižní VII",
        "addr:streetnumber": "12",
        "ref:ruian:addr": "21988552"
      },
      "geometry": {
        "type": "Point",
        "coordinates": [
          14.4817449,
          50.0421508
        ]
      },
      "id": "node/296734033"
    },
    {
      "type": "Feature",
      "properties": {
        "@id": "node/296738132",
        "addr:conscriptionnumber": "1045",
        "addr:housenumber": "1045/28",
        "addr:place": "Záběhlice",
        "addr:postcode": "14100",
        "addr:street": "Jihozápadní II",
        "addr:streetnumber": "28",
        "ref:ruian:addr": "21989389"
      },
      "geometry": {
        "type": "Point",
        "coordinates": [
          14.480047,
          50.0425957
        ]
      },
      "id": "node/296738132"
    },
    {
      "type": "Feature",
      "properties": {
        "@id": "node/296740462",
        "addr:conscriptionnumber": "1937",
        "addr:housenumber": "1937/6",
        "addr:postcode": "14100",
        "addr:street": "Jihovýchodní IV",
        "addr:streetnumber": "6",
        "source:addr": "uir_adr",
        "uir_adr:ADRESA_KOD": "21993882"
      },
      "geometry": {
        "type": "Point",
        "coordinates": [
          14.4816177,
          50.0425002
        ]
      },
      "id": "node/296740462"
    },
    {
      "type": "Feature",
      "properties": {
        "@id": "node/296741638",
        "addr:conscriptionnumber": "906",
        "addr:housenumber": "906/5",
        "addr:postcode": "14100",
        "addr:street": "Jihovýchodní IV",
        "addr:streetnumber": "5",
        "source:addr": "uir_adr",
        "uir_adr:ADRESA_KOD": "21987971"
      },
      "geometry": {
        "type": "Point",
        "coordinates": [
          14.4814749,
          50.0426418
        ]
      },
      "id": "node/296741638"
    },
    {
      "type": "Feature",
      "properties": {
        "@id": "node/296743816",
        "addr:conscriptionnumber": "1014",
        "addr:housenumber": "1014/28",
        "addr:postcode": "14100",
        "addr:street": "Vestavěná",
        "addr:streetnumber": "28",
        "source:addr": "uir_adr",
        "uir_adr:ADRESA_KOD": "21989079"
      },
      "geometry": {
        "type": "Point",
        "coordinates": [
          14.4802575,
          50.0418721
        ]
      },
      "id": "node/296743816"
    },
    {
      "type": "Feature",
      "properties": {
        "@id": "node/296745690",
        "addr:conscriptionnumber": "994",
        "addr:housenumber": "994/20",
        "addr:postcode": "14100",
        "addr:street": "Jihozápadní V",
        "addr:streetnumber": "20",
        "source:addr": "uir_adr",
        "uir_adr:ADRESA_KOD": "21988862"
      },
      "geometry": {
        "type": "Point",
        "coordinates": [
          14.4798561,
          50.0411743
        ]
      },
      "id": "node/296745690"
    },
    {
      "type": "Feature",
      "properties": {
        "@id": "node/296746738",
        "addr:conscriptionnumber": "955",
        "addr:housenumber": "955/6",
        "addr:postcode": "14100",
        "addr:street": "Jižní VII",
        "addr:streetnumber": "6",
        "source:addr": "uir_adr",
        "uir_adr:ADRESA_KOD": "21988471"
      },
      "geometry": {
        "type": "Point",
        "coordinates": [
          14.4821028,
          50.0411453
        ]
      },
      "id": "node/296746738"
    },
    {
      "type": "Feature",
      "properties": {
        "@id": "node/296747069",
        "addr:conscriptionnumber": "972",
        "addr:housenumber": "972/7",
        "addr:place": "Záběhlice",
        "addr:postcode": "14100",
        "addr:street": "Jižní náměstí",
        "addr:streetnumber": "7",
        "ref:ruian:addr": "21988641"
      },
      "geometry": {
        "type": "Point",
        "coordinates": [
          14.4822959,
          50.0419609
        ]
      },
      "id": "node/296747069"
    },
    {
      "type": "Feature",
      "properties": {
        "@id": "node/296749364",
        "addr:conscriptionnumber": "942",
        "addr:housenumber": "942/15",
        "addr:postcode": "14100",
        "addr:street": "Jihovýchodní VIII",
        "addr:streetnumber": "15",
        "source:addr": "uir_adr",
        "uir_adr:ADRESA_KOD": "21988340"
      },
      "geometry": {
        "type": "Point",
        "coordinates": [
          14.4836226,
          50.0410886
        ]
      },
      "id": "node/296749364"
    },
    {
      "type": "Feature",
      "properties": {
        "@id": "node/296756084",
        "addr:conscriptionnumber": "929",
        "addr:housenumber": "929/2",
        "addr:postcode": "14100",
        "addr:street": "Jihovýchodní VI",
        "addr:streetnumber": "2",
        "source:addr": "uir_adr",
        "uir_adr:ADRESA_KOD": "21988200"
      },
      "geometry": {
        "type": "Point",
        "coordinates": [
          14.4835813,
          50.0417475
        ]
      },
      "id": "node/296756084"
    },
    {
      "type": "Feature",
      "properties": {
        "@id": "node/296759621",
        "addr:conscriptionnumber": "947",
        "addr:housenumber": "947/21",
        "addr:place": "Záběhlice",
        "addr:postcode": "14100",
        "addr:street": "Jižní náměstí",
        "addr:streetnumber": "21",
        "ref:ruian:addr": "21988391"
      },
      "geometry": {
        "type": "Point",
        "coordinates": [
          14.4815996,
          50.0413914
        ]
      },
      "id": "node/296759621"
    },
    {
      "type": "Feature",
      "properties": {
        "@id": "node/296760585",
        "addr:conscriptionnumber": "1048",
        "addr:housenumber": "1048/69",
        "addr:postcode": "14100",
        "addr:street": "Jihozápadní IV",
        "addr:streetnumber": "69",
        "source:addr": "uir_adr",
        "uir_adr:ADRESA_KOD": "21989419"
      },
      "geometry": {
        "type": "Point",
        "coordinates": [
          14.4799485,
          50.0421988
        ]
      },
      "id": "node/296760585"
    },
    {
      "type": "Feature",
      "properties": {
        "@id": "node/296762669",
        "addr:conscriptionnumber": "1017",
        "addr:housenumber": "1017/3",
        "addr:place": "Záběhlice",
        "addr:postcode": "14100",
        "addr:street": "Jižní IX",
        "addr:streetnumber": "3",
        "ref:ruian:addr": "21989109"
      },
      "geometry": {
        "type": "Point",
        "coordinates": [
          14.4806718,
          50.0417124
        ]
      },
      "id": "node/296762669"
    },
    {
      "type": "Feature",
      "properties": {
        "@id": "node/296765837",
        "addr:conscriptionnumber": "956",
        "addr:housenumber": "956/4",
        "addr:postcode": "14100",
        "addr:street": "Jižní VII",
        "addr:streetnumber": "4",
        "source:addr": "uir_adr",
        "uir_adr:ADRESA_KOD": "21988480"
      },
      "geometry": {
        "type": "Point",
        "coordinates": [
          14.4821198,
          50.0410652
        ]
      },
      "id": "node/296765837"
    },
    {
      "type": "Feature",
      "properties": {
        "@id": "node/296767613",
        "addr:conscriptionnumber": "933",
        "addr:housenumber": "933/13",
        "addr:postcode": "14100",
        "addr:street": "Jihovýchodní VII",
        "addr:streetnumber": "13",
        "source:addr": "uir_adr",
        "uir_adr:ADRESA_KOD": "21988251"
      },
      "geometry": {
        "type": "Point",
        "coordinates": [
          14.4839084,
          50.0414677
        ]
      },
      "id": "node/296767613"
    },
    {
      "type": "Feature",
      "properties": {
        "@id": "node/296771065",
        "addr:conscriptionnumber": "993",
        "addr:housenumber": "993/18",
        "addr:postcode": "14100",
        "addr:street": "Jihozápadní V",
        "addr:streetnumber": "18",
        "source:addr": "uir_adr",
        "uir_adr:ADRESA_KOD": "21988854"
      },
      "geometry": {
        "type": "Point",
        "coordinates": [
          14.4797317,
          50.0411633
        ]
      },
      "id": "node/296771065"
    },
    {
      "type": "Feature",
      "properties": {
        "@id": "node/296771482",
        "addr:conscriptionnumber": "939",
        "addr:housenumber": "939/8",
        "addr:postcode": "14100",
        "addr:street": "Jihovýchodní VII",
        "addr:streetnumber": "8",
        "source:addr": "uir_adr",
        "uir_adr:ADRESA_KOD": "21988315"
      },
      "geometry": {
        "type": "Point",
        "coordinates": [
          14.4835671,
          50.0412834
        ]
      },
      "id": "node/296771482"
    },
    {
      "type": "Feature",
      "properties": {
        "@id": "node/296775305",
        "addr:conscriptionnumber": "1022",
        "addr:housenumber": "1022/17",
        "addr:postcode": "14100",
        "addr:street": "Jihozápadní V",
        "addr:streetnumber": "17",
        "source:addr": "uir_adr",
        "uir_adr:ADRESA_KOD": "21989150"
      },
      "geometry": {
        "type": "Point",
        "coordinates": [
          14.4796491,
          50.0414192
        ]
      },
      "id": "node/296775305"
    },
    {
      "type": "Feature",
      "properties": {
        "@id": "node/296778824",
        "addr:conscriptionnumber": "977",
        "addr:housenumber": "977/2",
        "addr:place": "Záběhlice",
        "addr:postcode": "14100",
        "addr:street": "Jižní náměstí",
        "addr:streetnumber": "2",
        "ref:ruian:addr": "21988692"
      },
      "geometry": {
        "type": "Point",
        "coordinates": [
          14.4812817,
          50.0417693
        ]
      },
      "id": "node/296778824"
    },
    {
      "type": "Feature",
      "properties": {
        "@id": "node/296788348",
        "addr:conscriptionnumber": "940",
        "addr:housenumber": "940/10",
        "addr:postcode": "14100",
        "addr:street": "Jihovýchodní VII",
        "addr:streetnumber": "10",
        "source:addr": "uir_adr",
        "uir_adr:ADRESA_KOD": "21988323"
      },
      "geometry": {
        "type": "Point",
        "coordinates": [
          14.4836482,
          50.0412996
        ]
      },
      "id": "node/296788348"
    },
    {
      "type": "Feature",
      "properties": {
        "@id": "node/296788483",
        "addr:conscriptionnumber": "1016",
        "addr:housenumber": "1016/32",
        "addr:postcode": "14100",
        "addr:street": "Vestavěná",
        "addr:streetnumber": "32",
        "source:addr": "uir_adr",
        "uir_adr:ADRESA_KOD": "21989095"
      },
      "geometry": {
        "type": "Point",
        "coordinates": [
          14.4804712,
          50.0419272
        ]
      },
      "id": "node/296788483"
    },
    {
      "type": "Feature",
      "properties": {
        "@id": "node/296789281",
        "addr:conscriptionnumber": "1047",
        "addr:housenumber": "1047/71",
        "addr:postcode": "14100",
        "addr:street": "Jihozápadní IV",
        "addr:streetnumber": "71",
        "source:addr": "uir_adr",
        "uir_adr:ADRESA_KOD": "21989401"
      },
      "geometry": {
        "type": "Point",
        "coordinates": [
          14.4800592,
          50.0422086
        ]
      },
      "id": "node/296789281"
    },
    {
      "type": "Feature",
      "properties": {
        "@id": "node/296790401",
        "addr:conscriptionnumber": "934",
        "addr:housenumber": "934/3",
        "addr:postcode": "14100",
        "addr:street": "Boční I",
        "addr:streetnumber": "3",
        "source:addr": "uir_adr",
        "uir_adr:ADRESA_KOD": "21988269"
      },
      "geometry": {
        "type": "Point",
        "coordinates": [
          14.4841379,
          50.0415152
        ]
      },
      "id": "node/296790401"
    },
    {
      "type": "Feature",
      "properties": {
        "@id": "node/296790978",
        "addr:conscriptionnumber": "969",
        "addr:housenumber": "969/2",
        "addr:postcode": "14100",
        "addr:street": "Jihovýchodní V",
        "addr:streetnumber": "2",
        "source:addr": "uir_adr",
        "uir_adr:ADRESA_KOD": "21988617"
      },
      "geometry": {
        "type": "Point",
        "coordinates": [
          14.4827654,
          50.0423381
        ]
      },
      "id": "node/296790978"
    },
    {
      "type": "Feature",
      "properties": {
        "@id": "node/296794904",
        "addr:conscriptionnumber": "927",
        "addr:housenumber": "927/11",
        "addr:postcode": "14100",
        "addr:street": "Boční I",
        "addr:streetnumber": "11",
        "source:addr": "uir_adr",
        "uir_adr:ADRESA_KOD": "21988188"
      },
      "geometry": {
        "type": "Point",
        "coordinates": [
          14.4838854,
          50.0421735
        ]
      },
      "id": "node/296794904"
    },
    {
      "type": "Feature",
      "properties": {
        "@id": "node/296801173",
        "addr:conscriptionnumber": "964",
        "addr:housenumber": "964",
        "addr:postcode": "14100",
        "addr:street": "Jižní VII",
        "source:addr": "uir_adr",
        "uir_adr:ADRESA_KOD": "21988561"
      },
      "geometry": {
        "type": "Point",
        "coordinates": [
          14.4819166,
          50.0421544
        ]
      },
      "id": "node/296801173"
    },
    {
      "type": "Feature",
      "properties": {
        "@id": "node/296801467",
        "addr:conscriptionnumber": "1977",
        "addr:housenumber": "1977/8",
        "addr:postcode": "14100",
        "addr:street": "Jihovýchodní IV",
        "addr:streetnumber": "8",
        "source:addr": "uir_adr",
        "uir_adr:ADRESA_KOD": "21993912"
      },
      "geometry": {
        "type": "Point",
        "coordinates": [
          14.4817347,
          50.0425468
        ]
      },
      "id": "node/296801467"
    },
    {
      "type": "Feature",
      "properties": {
        "@id": "node/296803420",
        "addr:conscriptionnumber": "961",
        "addr:housenumber": "961/7",
        "addr:postcode": "14100",
        "addr:street": "Jižní VII",
        "addr:streetnumber": "7",
        "source:addr": "uir_adr",
        "uir_adr:ADRESA_KOD": "21988536"
      },
      "geometry": {
        "type": "Point",
        "coordinates": [
          14.4818834,
          50.0411169
        ]
      },
      "id": "node/296803420"
    },
    {
      "type": "Feature",
      "properties": {
        "@id": "node/296803609",
        "addr:conscriptionnumber": "995",
        "addr:housenumber": "995/22",
        "addr:postcode": "14100",
        "addr:street": "Jihozápadní V",
        "addr:streetnumber": "22",
        "source:addr": "uir_adr",
        "uir_adr:ADRESA_KOD": "21988871"
      },
      "geometry": {
        "type": "Point",
        "coordinates": [
          14.479963,
          50.0412018
        ]
      },
      "id": "node/296803609"
    },
    {
      "type": "Feature",
      "properties": {
        "@id": "node/296803797",
        "addr:conscriptionnumber": "978",
        "addr:housenumber": "978/3",
        "addr:place": "Záběhlice",
        "addr:postcode": "14100",
        "addr:street": "Jižní náměstí",
        "addr:streetnumber": "3",
        "ref:ruian:addr": "21988706"
      },
      "geometry": {
        "type": "Point",
        "coordinates": [
          14.4815069,
          50.0418279
        ]
      },
      "id": "node/296803797"
    },
    {
      "type": "Feature",
      "properties": {
        "@id": "node/296806318",
        "addr:conscriptionnumber": "931",
        "addr:housenumber": "931/7",
        "addr:postcode": "14100",
        "addr:street": "Boční I",
        "addr:streetnumber": "7",
        "source:addr": "uir_adr",
        "uir_adr:ADRESA_KOD": "21988234"
      },
      "geometry": {
        "type": "Point",
        "coordinates": [
          14.4840359,
          50.0417966
        ]
      },
      "id": "node/296806318"
    },
    {
      "type": "Feature",
      "properties": {
        "@id": "node/296807951",
        "addr:conscriptionnumber": "1011",
        "addr:housenumber": "1011/22",
        "addr:postcode": "14100",
        "addr:street": "Vestavěná",
        "addr:streetnumber": "22",
        "source:addr": "uir_adr",
        "uir_adr:ADRESA_KOD": "21989044"
      },
      "geometry": {
        "type": "Point",
        "coordinates": [
          14.4797275,
          50.04178
        ]
      },
      "id": "node/296807951"
    },
    {
      "type": "Feature",
      "properties": {
        "@id": "node/296811081",
        "addr:conscriptionnumber": "953",
        "addr:housenumber": "953/7",
        "addr:postcode": "14100",
        "addr:street": "Jihovýchodní VII",
        "addr:streetnumber": "7",
        "source:addr": "uir_adr",
        "uir_adr:ADRESA_KOD": "21988455"
      },
      "geometry": {
        "type": "Point",
        "coordinates": [
          14.4828082,
          50.0412075
        ]
      },
      "id": "node/296811081"
    },
    {
      "type": "Feature",
      "properties": {
        "@id": "node/296816946",
        "addr:conscriptionnumber": "2960",
        "addr:housenumber": "2960/12",
        "addr:postcode": "14100",
        "addr:street": "Jižní IX",
        "addr:streetnumber": "12",
        "source:addr": "uir_adr",
        "uir_adr:ADRESA_KOD": "21997411"
      },
      "geometry": {
        "type": "Point",
        "coordinates": [
          14.4804041,
          50.0425747
        ]
      },
      "id": "node/296816946"
    },
    {
      "type": "Feature",
      "properties": {
        "@id": "node/296817694",
        "addr:conscriptionnumber": "923",
        "addr:housenumber": "923/4",
        "addr:postcode": "14100",
        "addr:street": "Jihovýchodní V",
        "addr:streetnumber": "4",
        "source:addr": "uir_adr",
        "uir_adr:ADRESA_KOD": "21988145"
      },
      "geometry": {
        "type": "Point",
        "coordinates": [
          14.4830521,
          50.0423815
        ]
      },
      "id": "node/296817694"
    },
    {
      "type": "Feature",
      "properties": {
        "@id": "node/296823814",
        "addr:conscriptionnumber": "962",
        "addr:housenumber": "962/22",
        "addr:place": "Záběhlice",
        "addr:postcode": "14100",
        "addr:street": "Jižní náměstí",
        "addr:streetnumber": "22",
        "ref:ruian:addr": "21988544"
      },
      "geometry": {
        "type": "Point",
        "coordinates": [
          14.4814983,
          50.0411386
        ]
      },
      "id": "node/296823814"
    },
    {
      "type": "Feature",
      "properties": {
        "@id": "node/296834269",
        "addr:conscriptionnumber": "929",
        "addr:housenumber": "929/13",
        "addr:place": "Záběhlice",
        "addr:postcode": "14100",
        "addr:street": "Jižní náměstí",
        "addr:streetnumber": "13",
        "ref:ruian:addr": "21988218"
      },
      "geometry": {
        "type": "Point",
        "coordinates": [
          14.4835474,
          50.0417082
        ]
      },
      "id": "node/296834269"
    },
    {
      "type": "Feature",
      "properties": {
        "@id": "node/296840864",
        "addr:conscriptionnumber": "954",
        "addr:housenumber": "954/19",
        "addr:place": "Záběhlice",
        "addr:postcode": "14100",
        "addr:street": "Jižní náměstí",
        "addr:streetnumber": "19",
        "ref:ruian:addr": "21988463"
      },
      "geometry": {
        "type": "Point",
        "coordinates": [
          14.4824139,
          50.0412726
        ]
      },
      "id": "node/296840864"
    },
    {
      "type": "Feature",
      "properties": {
        "@id": "node/296841142",
        "addr:conscriptionnumber": "937",
        "addr:housenumber": "937/4",
        "addr:postcode": "14100",
        "addr:street": "Jihovýchodní VII",
        "addr:streetnumber": "4",
        "source:addr": "uir_adr",
        "uir_adr:ADRESA_KOD": "21988293"
      },
      "geometry": {
        "type": "Point",
        "coordinates": [
          14.483132,
          50.0412088
        ]
      },
      "id": "node/296841142"
    },
    {
      "type": "Feature",
      "properties": {
        "@id": "node/296842963",
        "addr:conscriptionnumber": "907",
        "addr:housenumber": "907/3",
        "addr:postcode": "14100",
        "addr:street": "Jihovýchodní IV",
        "addr:streetnumber": "3",
        "source:addr": "uir_adr",
        "uir_adr:ADRESA_KOD": "21987980"
      },
      "geometry": {
        "type": "Point",
        "coordinates": [
          14.481368,
          50.0426143
        ]
      },
      "id": "node/296842963"
    },
    {
      "type": "Feature",
      "properties": {
        "@id": "node/296843732",
        "addr:conscriptionnumber": "1019",
        "addr:housenumber": "1019/23",
        "addr:postcode": "14100",
        "addr:street": "Jihozápadní V",
        "addr:streetnumber": "23",
        "source:addr": "uir_adr",
        "uir_adr:ADRESA_KOD": "21989125"
      },
      "geometry": {
        "type": "Point",
        "coordinates": [
          14.4799754,
          50.0414752
        ]
      },
      "id": "node/296843732"
    },
    {
      "type": "Feature",
      "properties": {
        "@id": "node/296861460",
        "addr:conscriptionnumber": "959",
        "addr:housenumber": "959/3",
        "addr:place": "Záběhlice",
        "addr:postcode": "14100",
        "addr:street": "Jižní VII",
        "addr:streetnumber": "3",
        "ref:ruian:addr": "21988510"
      },
      "geometry": {
        "type": "Point",
        "coordinates": [
          14.4820611,
          50.0408158
        ]
      },
      "id": "node/296861460"
    },
    {
      "type": "Feature",
      "properties": {
        "@id": "node/296862450",
        "addr:conscriptionnumber": "1044",
        "addr:housenumber": "1044/26",
        "addr:postcode": "14100",
        "addr:street": "Jihozápadní II",
        "addr:streetnumber": "26",
        "source:addr": "uir_adr",
        "uir_adr:ADRESA_KOD": "21989371"
      },
      "geometry": {
        "type": "Point",
        "coordinates": [
          14.4797521,
          50.0425264
        ]
      },
      "id": "node/296862450"
    },
    {
      "type": "Feature",
      "properties": {
        "@id": "node/449711218",
        "addr:conscriptionnumber": "1049",
        "addr:housenumber": "1049/67",
        "addr:postcode": "14100",
        "addr:street": "Jihozápadní IV",
        "addr:streetnumber": "67",
        "source:addr": "uir_adr",
        "uir_adr:ADRESA_KOD": "21989427"
      },
      "geometry": {
        "type": "Point",
        "coordinates": [
          14.4798435,
          50.0421623
        ]
      },
      "id": "node/449711218"
    },
    {
      "type": "Feature",
      "properties": {
        "@id": "node/449722317",
        "addr:conscriptionnumber": "967",
        "addr:housenumber": "967/3",
        "addr:postcode": "14100",
        "addr:street": "Jižní VI",
        "addr:streetnumber": "3",
        "source:addr": "uir_adr",
        "uir_adr:ADRESA_KOD": "21988595"
      },
      "geometry": {
        "type": "Point",
        "coordinates": [
          14.4822938,
          50.0423691
        ]
      },
      "id": "node/449722317"
    },
    {
      "type": "Feature",
      "properties": {
        "@id": "node/449728423",
        "addr:conscriptionnumber": "932",
        "addr:housenumber": "932/9",
        "addr:postcode": "14100",
        "addr:street": "Boční I",
        "addr:streetnumber": "9",
        "source:addr": "uir_adr",
        "uir_adr:ADRESA_KOD": "21988242"
      },
      "geometry": {
        "type": "Point",
        "coordinates": [
          14.4840069,
          50.0418666
        ]
      },
      "id": "node/449728423"
    },
    {
      "type": "Feature",
      "properties": {
        "@id": "node/449739601",
        "addr:conscriptionnumber": "915",
        "addr:housenumber": "915/3",
        "addr:place": "Záběhlice",
        "addr:postcode": "14100",
        "addr:street": "Jihovýchodní V",
        "addr:streetnumber": "3",
        "ref:ruian:addr": "21988064"
      },
      "geometry": {
        "type": "Point",
        "coordinates": [
          14.4827361,
          50.0424594
        ]
      },
      "id": "node/449739601"
    },
    {
      "type": "Feature",
      "properties": {
        "@id": "node/449750201",
        "addr:conscriptionnumber": "975",
        "addr:housenumber": "975/2",
        "addr:place": "Záběhlice",
        "addr:postcode": "14100",
        "addr:street": "Jihovýchodní IV",
        "addr:streetnumber": "2",
        "ref:ruian:addr": "21988676"
      },
      "geometry": {
        "type": "Point",
        "coordinates": [
          14.480932,
          50.0422403
        ]
      },
      "id": "node/449750201"
    },
    {
      "type": "Feature",
      "properties": {
        "@id": "node/449750400",
        "addr:conscriptionnumber": "998",
        "addr:housenumber": "998/28",
        "addr:postcode": "14100",
        "addr:street": "Jihozápadní V",
        "addr:streetnumber": "28",
        "source:addr": "uir_adr",
        "uir_adr:ADRESA_KOD": "21988901"
      },
      "geometry": {
        "type": "Point",
        "coordinates": [
          14.4806471,
          50.0412984
        ]
      },
      "id": "node/449750400"
    },
    {
      "type": "Feature",
      "properties": {
        "@id": "node/449751442",
        "addr:conscriptionnumber": "948",
        "addr:housenumber": "948/20",
        "addr:place": "Záběhlice",
        "addr:postcode": "14100",
        "addr:street": "Jižní náměstí",
        "addr:streetnumber": "20",
        "ref:ruian:addr": "21988404"
      },
      "geometry": {
        "type": "Point",
        "coordinates": [
          14.4821296,
          50.0414835
        ]
      },
      "id": "node/449751442"
    },
    {
      "type": "Feature",
      "properties": {
        "@id": "node/449754849",
        "addr:conscriptionnumber": "945",
        "addr:housenumber": "945/2",
        "addr:place": "Záběhlice",
        "addr:postcode": "14100",
        "addr:street": "Jihovýchodní VII",
        "addr:streetnumber": "2",
        "ref:ruian:addr": "21988374"
      },
      "geometry": {
        "type": "Point",
        "coordinates": [
          14.4828377,
          50.0410373
        ]
      },
      "id": "node/449754849"
    },
    {
      "type": "Feature",
      "properties": {
        "@id": "node/449769183",
        "addr:conscriptionnumber": "970",
        "addr:housenumber": "970/9",
        "addr:place": "Záběhlice",
        "addr:postcode": "14100",
        "addr:street": "Jižní náměstí",
        "addr:streetnumber": "9",
        "ref:ruian:addr": "21988625"
      },
      "geometry": {
        "type": "Point",
        "coordinates": [
          14.4827033,
          50.0420331
        ]
      },
      "id": "node/449769183"
    },
    {
      "type": "Feature",
      "properties": {
        "@id": "node/449803019",
        "addr:conscriptionnumber": "976",
        "addr:housenumber": "976/1",
        "addr:place": "Záběhlice",
        "addr:postcode": "14100",
        "addr:street": "Jižní náměstí",
        "addr:streetnumber": "1",
        "ref:ruian:addr": "21988684"
      },
      "geometry": {
        "type": "Point",
        "coordinates": [
          14.4811787,
          50.0417608
        ]
      },
      "id": "node/449803019"
    },
    {
      "type": "Feature",
      "properties": {
        "@id": "node/449803150",
        "addr:conscriptionnumber": "997",
        "addr:housenumber": "997/26",
        "addr:postcode": "14100",
        "addr:street": "Jihozápadní V",
        "addr:streetnumber": "26",
        "source:addr": "uir_adr",
        "uir_adr:ADRESA_KOD": "21988897"
      },
      "geometry": {
        "type": "Point",
        "coordinates": [
          14.4803723,
          50.0412651
        ]
      },
      "id": "node/449803150"
    },
    {
      "type": "Feature",
      "properties": {
        "@id": "node/449808194",
        "addr:conscriptionnumber": "946",
        "addr:housenumber": "946/23",
        "addr:place": "Záběhlice",
        "addr:postcode": "14100",
        "addr:street": "Jižní náměstí",
        "addr:streetnumber": "23",
        "ref:ruian:addr": "21988382"
      },
      "geometry": {
        "type": "Point",
        "coordinates": [
          14.4812456,
          50.041333
        ]
      },
      "id": "node/449808194"
    },
    {
      "type": "Feature",
      "properties": {
        "@id": "node/449821604",
        "addr:conscriptionnumber": "924",
        "addr:housenumber": "924/6",
        "addr:place": "Záběhlice",
        "addr:postcode": "14100",
        "addr:street": "Jihovýchodní V",
        "addr:streetnumber": "6",
        "ref:ruian:addr": "21988153"
      },
      "geometry": {
        "type": "Point",
        "coordinates": [
          14.4833307,
          50.0421981
        ]
      },
      "id": "node/449821604"
    },
    {
      "type": "Feature",
      "properties": {
        "@id": "node/449840400",
        "addr:conscriptionnumber": "996",
        "addr:housenumber": "996/24",
        "addr:postcode": "14100",
        "addr:street": "Jihozápadní V",
        "addr:streetnumber": "24",
        "source:addr": "uir_adr",
        "uir_adr:ADRESA_KOD": "21988889"
      },
      "geometry": {
        "type": "Point",
        "coordinates": [
          14.4800856,
          50.0412217
        ]
      },
      "id": "node/449840400"
    },
    {
      "type": "Feature",
      "properties": {
        "@id": "node/449840451",
        "addr:conscriptionnumber": "926",
        "addr:housenumber": "926/13",
        "addr:postcode": "14100",
        "addr:street": "Boční I",
        "addr:streetnumber": "13",
        "source:addr": "uir_adr",
        "uir_adr:ADRESA_KOD": "21988170"
      },
      "geometry": {
        "type": "Point",
        "coordinates": [
          14.4838564,
          50.0422436
        ]
      },
      "id": "node/449840451"
    },
    {
      "type": "Feature",
      "properties": {
        "@id": "node/2834638345",
        "addr:conscriptionnumber": "1016",
        "addr:housenumber": "1016/5",
        "addr:place": "Záběhlice",
        "addr:postcode": "14100",
        "addr:street": "Jižní IX",
        "addr:streetnumber": "5",
        "ref:ruian:addr": "25664115"
      },
      "geometry": {
        "type": "Point",
        "coordinates": [
          14.4805555,
          50.0419007
        ]
      },
      "id": "node/2834638345"
    },
    {
      "type": "Feature",
      "properties": {
        "@id": "node/2834638346",
        "addr:conscriptionnumber": "1017",
        "addr:housenumber": "1017/27",
        "addr:place": "Záběhlice",
        "addr:postcode": "14100",
        "addr:street": "Jihozápadní V",
        "addr:streetnumber": "27",
        "ref:ruian:addr": "25664123"
      },
      "geometry": {
        "type": "Point",
        "coordinates": [
          14.4806326,
          50.041645
        ]
      },
      "id": "node/2834638346"
    },
    {
      "type": "Feature",
      "properties": {
        "@id": "node/2834638349",
        "addr:conscriptionnumber": "1045",
        "addr:housenumber": "1045/11",
        "addr:place": "Záběhlice",
        "addr:postcode": "14100",
        "addr:street": "Jižní IX",
        "addr:streetnumber": "11",
        "ref:ruian:addr": "25664093"
      },
      "geometry": {
        "type": "Point",
        "coordinates": [
          14.4801528,
          50.0425546
        ]
      },
      "id": "node/2834638349"
    },
    {
      "type": "Feature",
      "properties": {
        "@id": "node/2834638350",
        "addr:conscriptionnumber": "1046",
        "addr:housenumber": "1046/73",
        "addr:place": "Záběhlice",
        "addr:postcode": "14100",
        "addr:street": "Jihozápadní IV",
        "addr:streetnumber": "73",
        "ref:ruian:addr": "25664140"
      },
      "geometry": {
        "type": "Point",
        "coordinates": [
          14.4803518,
          50.0422585
        ]
      },
      "id": "node/2834638350"
    },
    {
      "type": "Feature",
      "properties": {
        "@id": "node/2834638885",
        "addr:conscriptionnumber": "2960",
        "addr:housenumber": "2960/13a",
        "addr:place": "Záběhlice",
        "addr:postcode": "14100",
        "addr:street": "Jižní VII",
        "addr:streetnumber": "13a",
        "ref:ruian:addr": "25664158"
      },
      "geometry": {
        "type": "Point",
        "coordinates": [
          14.4807385,
          50.042652
        ]
      },
      "id": "node/2834638885"
    },
    {
      "type": "Feature",
      "properties": {
        "@id": "node/2834639845",
        "addr:conscriptionnumber": "909",
        "addr:housenumber": "909/4",
        "addr:place": "Záběhlice",
        "addr:postcode": "14100",
        "addr:street": "Jižní VI",
        "addr:streetnumber": "4",
        "ref:ruian:addr": "25671570"
      },
      "geometry": {
        "type": "Point",
        "coordinates": [
          14.4824821,
          50.0426479
        ]
      },
      "id": "node/2834639845"
    },
    {
      "type": "Feature",
      "properties": {
        "@id": "node/2834639847",
        "addr:conscriptionnumber": "913",
        "addr:housenumber": "913/1",
        "addr:place": "Záběhlice",
        "addr:postcode": "14100",
        "addr:street": "Jižní V",
        "addr:streetnumber": "1",
        "ref:ruian:addr": "25671553"
      },
      "geometry": {
        "type": "Point",
        "coordinates": [
          14.4831649,
          50.0425863
        ]
      },
      "id": "node/2834639847"
    },
    {
      "type": "Feature",
      "properties": {
        "@id": "node/2834639848",
        "addr:conscriptionnumber": "916",
        "addr:housenumber": "916/2",
        "addr:place": "Záběhlice",
        "addr:postcode": "14100",
        "addr:street": "Jižní VI",
        "addr:streetnumber": "2",
        "ref:ruian:addr": "25671561"
      },
      "geometry": {
        "type": "Point",
        "coordinates": [
          14.4825528,
          50.0424579
        ]
      },
      "id": "node/2834639848"
    },
    {
      "type": "Feature",
      "properties": {
        "@id": "node/2834639852",
        "addr:conscriptionnumber": "920",
        "addr:housenumber": "920/4",
        "addr:place": "Záběhlice",
        "addr:postcode": "14100",
        "addr:street": "Jižní V",
        "addr:streetnumber": "4",
        "ref:ruian:addr": "25671511"
      },
      "geometry": {
        "type": "Point",
        "coordinates": [
          14.4835922,
          50.0426627
        ]
      },
      "id": "node/2834639852"
    },
    {
      "type": "Feature",
      "properties": {
        "@id": "node/2834639853",
        "addr:conscriptionnumber": "923",
        "addr:housenumber": "923/11",
        "addr:place": "Záběhlice",
        "addr:postcode": "14100",
        "addr:street": "Jižní náměstí",
        "addr:streetnumber": "11",
        "ref:ruian:addr": "25671588"
      },
      "geometry": {
        "type": "Point",
        "coordinates": [
          14.4830909,
          50.0423379
        ]
      },
      "id": "node/2834639853"
    },
    {
      "type": "Feature",
      "properties": {
        "@id": "node/2834639854",
        "addr:conscriptionnumber": "924",
        "addr:housenumber": "924/1",
        "addr:place": "Záběhlice",
        "addr:postcode": "14100",
        "addr:street": "Jihovýchodní VI",
        "addr:streetnumber": "1",
        "ref:ruian:addr": "25671685"
      },
      "geometry": {
        "type": "Point",
        "coordinates": [
          14.4834786,
          50.0421332
        ]
      },
      "id": "node/2834639854"
    },
    {
      "type": "Feature",
      "properties": {
        "@id": "node/2834639855",
        "addr:conscriptionnumber": "924",
        "addr:housenumber": "924/12",
        "addr:place": "Záběhlice",
        "addr:postcode": "14100",
        "addr:street": "Jižní náměstí",
        "addr:streetnumber": "12",
        "ref:ruian:addr": "25671596"
      },
      "geometry": {
        "type": "Point",
        "coordinates": [
          14.4833589,
          50.0421153
        ]
      },
      "id": "node/2834639855"
    },
    {
      "type": "Feature",
      "properties": {
        "@id": "node/2834639856",
        "addr:conscriptionnumber": "925",
        "addr:housenumber": "925/15",
        "addr:place": "Záběhlice",
        "addr:postcode": "14100",
        "addr:street": "Boční I",
        "addr:streetnumber": "15",
        "ref:ruian:addr": "21988161"
      },
      "geometry": {
        "type": "Point",
        "coordinates": [
          14.4837882,
          50.0423029
        ]
      },
      "id": "node/2834639856"
    },
    {
      "type": "Feature",
      "properties": {
        "@id": "node/2834639857",
        "addr:conscriptionnumber": "927",
        "addr:housenumber": "927/3",
        "addr:place": "Záběhlice",
        "addr:postcode": "14100",
        "addr:street": "Jihovýchodní VI",
        "addr:streetnumber": "3",
        "ref:ruian:addr": "25671693"
      },
      "geometry": {
        "type": "Point",
        "coordinates": [
          14.4838723,
          50.0421322
        ]
      },
      "id": "node/2834639857"
    },
    {
      "type": "Feature",
      "properties": {
        "@id": "node/2834639858",
        "addr:conscriptionnumber": "928",
        "addr:housenumber": "928/14",
        "addr:place": "Záběhlice",
        "addr:postcode": "14100",
        "addr:street": "Jižní náměstí",
        "addr:streetnumber": "14",
        "ref:ruian:addr": "25671600"
      },
      "geometry": {
        "type": "Point",
        "coordinates": [
          14.4834829,
          50.0414737
        ]
      },
      "id": "node/2834639858"
    },
    {
      "type": "Feature",
      "properties": {
        "@id": "node/2834639859",
        "addr:conscriptionnumber": "932",
        "addr:housenumber": "932/4",
        "addr:place": "Záběhlice",
        "addr:postcode": "14100",
        "addr:street": "Jihovýchodní VI",
        "addr:streetnumber": "4",
        "ref:ruian:addr": "25671677"
      },
      "geometry": {
        "type": "Point",
        "coordinates": [
          14.483943,
          50.0418946
        ]
      },
      "id": "node/2834639859"
    },
    {
      "type": "Feature",
      "properties": {
        "@id": "node/2834639860",
        "addr:conscriptionnumber": "934",
        "addr:housenumber": "934/14",
        "addr:place": "Záběhlice",
        "addr:postcode": "14100",
        "addr:street": "Jihovýchodní VII",
        "addr:streetnumber": "14",
        "ref:ruian:addr": "30481848"
      },
      "geometry": {
        "type": "Point",
        "coordinates": [
          14.4840663,
          50.0415421
        ]
      },
      "id": "node/2834639860"
    },
    {
      "type": "Feature",
      "properties": {
        "@id": "node/2834639862",
        "addr:conscriptionnumber": "945",
        "addr:housenumber": "945/9",
        "addr:place": "Záběhlice",
        "addr:postcode": "14100",
        "addr:street": "Jihovýchodní VIII",
        "addr:streetnumber": "9",
        "ref:ruian:addr": "25671651"
      },
      "geometry": {
        "type": "Point",
        "coordinates": [
          14.4828577,
          50.0409496
        ]
      },
      "id": "node/2834639862"
    },
    {
      "type": "Feature",
      "properties": {
        "@id": "node/2834639863",
        "addr:conscriptionnumber": "946",
        "addr:housenumber": "946/6",
        "addr:place": "Záběhlice",
        "addr:postcode": "14100",
        "addr:street": "Jižní IX",
        "addr:streetnumber": "6",
        "ref:ruian:addr": "25671472"
      },
      "geometry": {
        "type": "Point",
        "coordinates": [
          14.4812054,
          50.0412958
        ]
      },
      "id": "node/2834639863"
    },
    {
      "type": "Feature",
      "properties": {
        "@id": "node/2834639864",
        "addr:conscriptionnumber": "947",
        "addr:housenumber": "947/9",
        "addr:place": "Záběhlice",
        "addr:postcode": "14100",
        "addr:street": "Jižní VII",
        "addr:streetnumber": "9",
        "ref:ruian:addr": "25671448"
      },
      "geometry": {
        "type": "Point",
        "coordinates": [
          14.4817227,
          50.041363
        ]
      },
      "id": "node/2834639864"
    },
    {
      "type": "Feature",
      "properties": {
        "@id": "node/2834639865",
        "addr:conscriptionnumber": "948",
        "addr:housenumber": "948/8",
        "addr:place": "Záběhlice",
        "addr:postcode": "14100",
        "addr:street": "Jižní VII",
        "addr:streetnumber": "8",
        "ref:ruian:addr": "25671456"
      },
      "geometry": {
        "type": "Point",
        "coordinates": [
          14.4820454,
          50.0414358
        ]
      },
      "id": "node/2834639865"
    },
    {
      "type": "Feature",
      "properties": {
        "@id": "node/2834639866",
        "addr:conscriptionnumber": "952",
        "addr:housenumber": "952/15",
        "addr:place": "Záběhlice",
        "addr:postcode": "14100",
        "addr:street": "Jižní náměstí",
        "addr:streetnumber": "15",
        "ref:ruian:addr": "25671618"
      },
      "geometry": {
        "type": "Point",
        "coordinates": [
          14.4831617,
          50.0414563
        ]
      },
      "id": "node/2834639866"
    },
    {
      "type": "Feature",
      "properties": {
        "@id": "node/2834639868",
        "addr:conscriptionnumber": "957",
        "addr:housenumber": "957/7",
        "addr:place": "Záběhlice",
        "addr:postcode": "14100",
        "addr:street": "Jihovýchodní VIII",
        "addr:streetnumber": "7",
        "ref:ruian:addr": "25671642"
      },
      "geometry": {
        "type": "Point",
        "coordinates": [
          14.4823515,
          50.040833
        ]
      },
      "id": "node/2834639868"
    },
    {
      "type": "Feature",
      "properties": {
        "@id": "node/2834639869",
        "addr:conscriptionnumber": "958",
        "addr:housenumber": "958/5",
        "addr:place": "Záběhlice",
        "addr:postcode": "14100",
        "addr:street": "Jihovýchodní VIII",
        "addr:streetnumber": "5",
        "ref:ruian:addr": "25671634"
      },
      "geometry": {
        "type": "Point",
        "coordinates": [
          14.4821619,
          50.0407973
        ]
      },
      "id": "node/2834639869"
    },
    {
      "type": "Feature",
      "properties": {
        "@id": "node/2834639870",
        "addr:conscriptionnumber": "959",
        "addr:housenumber": "959/3",
        "addr:place": "Záběhlice",
        "addr:postcode": "14100",
        "addr:street": "Jihovýchodní VIII",
        "addr:streetnumber": "3",
        "ref:ruian:addr": "25671626"
      },
      "geometry": {
        "type": "Point",
        "coordinates": [
          14.4819965,
          50.0408373
        ]
      },
      "id": "node/2834639870"
    },
    {
      "type": "Feature",
      "properties": {
        "@id": "node/2834639871",
        "addr:conscriptionnumber": "962",
        "addr:housenumber": "962/4",
        "addr:place": "Záběhlice",
        "addr:postcode": "14100",
        "addr:street": "Jižní IX",
        "addr:streetnumber": "4",
        "ref:ruian:addr": "25671464"
      },
      "geometry": {
        "type": "Point",
        "coordinates": [
          14.4814037,
          50.0410789
        ]
      },
      "id": "node/2834639871"
    },
    {
      "type": "Feature",
      "properties": {
        "@id": "node/2834639872",
        "addr:conscriptionnumber": "966",
        "addr:housenumber": "966/5",
        "addr:place": "Záběhlice",
        "addr:postcode": "14100",
        "addr:street": "Jižní VI",
        "addr:streetnumber": "5",
        "ref:ruian:addr": "25671502"
      },
      "geometry": {
        "type": "Point",
        "coordinates": [
          14.4820418,
          50.0426555
        ]
      },
      "id": "node/2834639872"
    },
    {
      "type": "Feature",
      "properties": {
        "@id": "node/2834639873",
        "addr:conscriptionnumber": "969",
        "addr:housenumber": "969/10",
        "addr:place": "Záběhlice",
        "addr:postcode": "14100",
        "addr:street": "Jižní náměstí",
        "addr:streetnumber": "10",
        "ref:ruian:addr": "25614126"
      },
      "geometry": {
        "type": "Point",
        "coordinates": [
          14.4828214,
          50.0422729
        ]
      },
      "id": "node/2834639873"
    },
    {
      "type": "Feature",
      "properties": {
        "@id": "node/2834639874",
        "addr:conscriptionnumber": "975",
        "addr:housenumber": "975/10",
        "addr:place": "Záběhlice",
        "addr:postcode": "14100",
        "addr:street": "Jižní IX",
        "addr:streetnumber": "10",
        "ref:ruian:addr": "25671499"
      },
      "geometry": {
        "type": "Point",
        "coordinates": [
          14.4808375,
          50.042174
        ]
      },
      "id": "node/2834639874"
    },
    {
      "type": "Feature",
      "properties": {
        "@id": "node/2834639875",
        "addr:conscriptionnumber": "975",
        "addr:housenumber": "975/13",
        "addr:place": "Záběhlice",
        "addr:postcode": "14100",
        "addr:street": "Jižní VII",
        "addr:streetnumber": "13",
        "ref:ruian:addr": "25671421"
      },
      "geometry": {
        "type": "Point",
        "coordinates": [
          14.4810375,
          50.0422238
        ]
      },
      "id": "node/2834639875"
    },
    {
      "type": "Feature",
      "properties": {
        "@id": "node/2834639876",
        "addr:conscriptionnumber": "976",
        "addr:housenumber": "976/8",
        "addr:place": "Záběhlice",
        "addr:postcode": "14100",
        "addr:street": "Jižní IX",
        "addr:streetnumber": "8",
        "ref:ruian:addr": "25671481"
      },
      "geometry": {
        "type": "Point",
        "coordinates": [
          14.481098,
          50.0417924
        ]
      },
      "id": "node/2834639876"
    },
    {
      "type": "Feature",
      "properties": {
        "@id": "node/2834639877",
        "addr:conscriptionnumber": "979",
        "addr:housenumber": "979/11",
        "addr:place": "Záběhlice",
        "addr:postcode": "14100",
        "addr:street": "Jižní VII",
        "addr:streetnumber": "11",
        "ref:ruian:addr": "25671430"
      },
      "geometry": {
        "type": "Point",
        "coordinates": [
          14.4816635,
          50.0418904
        ]
      },
      "id": "node/2834639877"
    },
    {
      "type": "Feature",
      "properties": {
        "@id": "node/2834639880",
        "addr:conscriptionnumber": "999",
        "addr:housenumber": "999/7",
        "addr:place": "Záběhlice",
        "addr:postcode": "14100",
        "addr:street": "Jižní IX",
        "addr:streetnumber": "7",
        "ref:ruian:addr": "25664107"
      },
      "geometry": {
        "type": "Point",
        "coordinates": [
          14.4805015,
          50.0420938
        ]
      },
      "id": "node/2834639880"
    },
    {
      "type": "Feature",
      "properties": {
        "@id": "node/2834639881",
        "addr:conscriptionnumber": "999",
        "addr:housenumber": "999/7",
        "addr:place": "Záběhlice",
        "addr:postcode": "14100",
        "addr:street": "Vestavěná",
        "addr:streetnumber": "7",
        "ref:ruian:addr": "25664131"
      },
      "geometry": {
        "type": "Point",
        "coordinates": [
          14.4803997,
          50.042043
        ]
      },
      "id": "node/2834639881"
    },
    {
      "type": "Feature",
      "properties": {
        "@id": "node/6388910176",
        "addr:conscriptionnumber": "3348",
        "addr:housenumber": "3348/17",
        "addr:place": "Záběhlice",
        "addr:postcode": "14100",
        "addr:street": "Jižní náměstí",
        "addr:streetnumber": "17",
        "ref:ruian:addr": "79263062"
      },
      "geometry": {
        "type": "Point",
        "coordinates": [
          14.482604,
          50.0415665
        ]
      },
      "id": "node/6388910176"
    }
  ]
}